WNISAT-1                
1 39423U 13066H   26116.39822546  .00000699  00000+0  13532-3 0  9992
2 39423  97.7134 269.2514 0163969  35.4783 325.7192 14.57999261659188
TRITON-1                
1 39427U 13066M   26116.83322501  .00004460  00000+0  53631-3 0  9995
2 39427  97.8271  27.8116 0091534  42.4510 318.3736 14.81452910666480
GOMX-1                  
1 39430U 13066Q   26116.83926581  .00001524  00000+0  23607-3 0  9995
2 39430  97.6529 320.5357 0127605 242.2211 116.6011 14.69261785662378
CUBEBUG-2 (LO-74)       
1 39440U 13066AA  26116.81155963  .00004429  00000+0  41417-3 0  9998
2 39440  97.8872  65.6004 0057390 196.1145 163.8251 14.93396714669324
NEE-02 KRYSAOR          
1 39441U 13066AB  26116.78212102  .00001954  00000+0  21949-3 0  9992
2 39441  97.8867  56.3801 0064939 237.6988 121.7927 14.86432467668560
FUNCUBE-1 (AO-73)       
1 39444U 13066AE  26116.86959253  .00010608  00000+0  66839-3 0  9992
2 39444  97.8240  87.2818 0037414  21.1117 339.1645 15.08754845671925
UWE-3                   
1 39446U 13066AG  26116.80778279  .00004242  00000+0  36826-3 0  9995
2 39446  97.8653  72.5667 0050581 129.9382 230.6299 14.96591998669892
BRITE-CA1 (TORONTO)     
1 40020U 14033L   26116.80659968  .00001021  00000+0  16040-3 0  9991
2 40020  97.9658 246.7073 0080053  81.6720 279.3554 14.72598610634653
DUCHIFAT-1              
1 40021U 14033M   26116.70305800  .00083870  00000+0  11952-2 0  9992
2 40021  98.0539 169.0145 0004213 233.3677 126.7189 15.56025427647727
NANOSATC-BR1            
1 40024U 14033Q   26116.62462609  .00020332  00000+0  70594-3 0  9999
2 40024  98.0775 144.5025 0003687  34.2544 325.8932 15.29807515646095
QB50P1                  
1 40025U 14033R   26116.59728986  .00010342  00000+0  51980-3 0  9997
2 40025  98.0989 124.1565 0010147  51.2969 308.9169 15.17429808645203
QB50P2                  
1 40032U 14033Y   26116.70847627  .00009102  00000+0  49813-3 0  9996
2 40032  98.0753 110.4152 0007425   6.0485 354.0833 15.14476206644879
PERSEUS-M2              
1 40037U 14033AD  26116.80881045  .00002181  00000+0  20291-3 0  9993
2 40037  97.9925  66.3215 0013452 107.3353 252.9340 14.95345478643106
PERSEUS-M1              
1 40039U 14033AF  26116.78572729  .00002415  00000+0  22343-3 0  9998
2 40039  97.9614  60.0920 0013145 106.0427 254.2242 14.95454550642954
POLYITAN-1              
1 40042U 14033AJ  26116.79076654  .00022831  00000+0  75210-3 0  9994
2 40042  98.0994 138.2567 0006061 341.1184  18.9829 15.31477997645722
TIGRISAT                
1 40043U 14033AK  26116.36837728  .00002262  00000+0  26669-3 0  9995
2 40043  97.7766 267.5945 0048221 243.8627 115.7623 14.84936304637937
AEROCUBE 6A             
1 40045U 14033AM  26116.71659971  .00008070  00000+0  68650-3 0  9997
2 40045  97.7185 284.2491 0038995 186.7181 173.3524 14.97492268638912
